{"type": "FeatureCollection", "features": [{"type": "Feature", "properties": {"norad_id": 24946, "name": "IRIDIUM 33", "group": "iridium-33-debris", "lat": 2.447595955823698, "lon": -107.07546041714183, "alt_km": 776.176146324332, "timestamp": "2025-12-01T03:58:49.183534+00:00", "meta": {"OBJECT_NAME": "IRIDIUM 33", "OBJECT_ID": "1997-051C", "EPOCH": "2025-11-30T18:47:16.694304", "MEAN_MOTION": 14.3502277, "ECCENTRICITY": 0.0005944, "INCLINATION": 86.3871, "RA_OF_ASC_NODE": 73.24, "ARG_OF_PERICENTER": 247.4735, "MEAN_ANOMALY": 112.5832, "EPHEMERIS_TYPE": 0, "CLASSIFICATION_TYPE": "U", "NORAD_CAT_ID": 24946, "ELEMENT_SET_NO": 999, "REV_AT_EPOCH": 47663, "BSTAR": 0.00012752, "MEAN_MOTION_DOT": 3.83e-06, "MEAN_MOTION_DDOT": 0, "GROUP": "iridium-33-debris"}, "tle": {"line1": "1 24946U 97051C   25334.78283211  .00000383  00000+0  12752-3 0  9999", "line2": "2 24946  86.3871  73.2400 0005944 247.4735 112.5832 14.35022770476639"}}, "geometry": {"type": "Point", "coordinates": [-107.07546041714183, 2.447595955823698]}}, {"type": "Feature", "properties": {"norad_id": 33773, "name": "IRIDIUM 33 DEB", "group": "iridium-33-debris", "lat": 26.812212293633085, "lon": -116.32960093088603, "alt_km": 739.9736018533622, "timestamp": "2025-12-01T03:58:49.183560+00:00", "meta": {"OBJECT_NAME": "IRIDIUM 33 DEB", "OBJECT_ID": "1997-051L", "EPOCH": "2025-11-30T18:57:11.274048", "MEAN_MOTION": 14.43211694, "ECCENTRICITY": 0.0011232, "INCLINATION": 86.4013, "RA_OF_ASC_NODE": 65.6524, "ARG_OF_PERICENTER": 183.4521, "MEAN_ANOMALY": 176.6604, "EPHEMERIS_TYPE": 0, "CLASSIFICATION_TYPE": "U", "NORAD_CAT_ID": 33773, "ELEMENT_SET_NO": 999, "REV_AT_EPOCH": 88175, "BSTAR": 0.00034339, "MEAN_MOTION_DOT": 1.175e-05, "MEAN_MOTION_DDOT": 0, "GROUP": "iridium-33-debris"}, "tle": {"line1": "1 33773U 97051L   25334.78971382  .00001175  00000+0  34339-3 0  9995", "line2": "2 33773  86.4013  65.6524 0011232 183.4521 176.6604 14.43211694881752"}}, "geometry": {"type": "Point", "coordinates": [-116.32960093088603, 26.812212293633085]}}, {"type": "Feature", "properties": {"norad_id": 33775, "name": "IRIDIUM 33 DEB", "group": "iridium-33-debris", "lat": -48.84006116482359, "lon": 50.3230215768412, "alt_km": 765.2371188831339, "timestamp": "2025-12-01T03:58:49.183576+00:00", "meta": {"OBJECT_NAME": "IRIDIUM 33 DEB", "OBJECT_ID": "1997-051N", "EPOCH": "2025-11-30T15:25:01.731360", "MEAN_MOTION": 14.414239, "ECCENTRICITY": 0.0012909, "INCLINATION": 86.3645, "RA_OF_ASC_NODE": 54.717, "ARG_OF_PERICENTER": 193.554, "MEAN_ANOMALY": 282.8253, "EPHEMERIS_TYPE": 0, "CLASSIFICATION_TYPE": "U", "NORAD_CAT_ID": 33775, "ELEMENT_SET_NO": 999, "REV_AT_EPOCH": 87966, "BSTAR": 0.00036258, "MEAN_MOTION_DOT": 1.196e-05, "MEAN_MOTION_DDOT": 0, "GROUP": "iridium-33-debris"}, "tle": {"line1": "1 33775U 97051N   25334.64238115  .00001196  00000+0  36258-3 0  9997", "line2": "2 33775  86.3645  54.7170 0012909 193.5540 282.8253 14.41423900879665"}}, "geometry": {"type": "Point", "coordinates": [50.3230215768412, -48.84006116482359]}}, {"type": "Feature", "properties": {"norad_id": 33776, "name": "IRIDIUM 33 DEB", "group": "iridium-33-debris", "lat": -44.71563081865113, "lon": 82.06539752057897, "alt_km": 770.3706337756648, "timestamp": "2025-12-01T03:58:49.183589+00:00", "meta": {"OBJECT_NAME": "IRIDIUM 33 DEB", "OBJECT_ID": "1997-051P", "EPOCH": "2025-11-30T18:56:32.941824", "MEAN_MOTION": 14.38196449, "ECCENTRICITY": 0.0013113, "INCLINATION": 86.4034, "RA_OF_ASC_NODE": 85.7939, "ARG_OF_PERICENTER": 231.8715, "MEAN_ANOMALY": 294.7492, "EPHEMERIS_TYPE": 0, "CLASSIFICATION_TYPE": "U", "NORAD_CAT_ID": 33776, "ELEMENT_SET_NO": 999, "REV_AT_EPOCH": 87910, "BSTAR": 0.00031927, "MEAN_MOTION_DOT": 9.89e-06, "MEAN_MOTION_DDOT": 0, "GROUP": "iridium-33-debris"}, "tle": {"line1": "1 33776U 97051P   25334.78927016  .00000989  00000+0  31927-3 0  9995", "line2": "2 33776  86.4034  85.7939 0013113 231.8715 294.7492 14.38196449879101"}}, "geometry": {"type": "Point", "coordinates": [82.06539752057897, -44.71563081865113]}}, {"type": "Feature", "properties": {"norad_id": 33777, "name": "IRIDIUM 33 DEB", "group": "iridium-33-debris", "lat": 77.49605527848821, "lon": -156.350653117927, "alt_km": 704.1671118840095, "timestamp": "2025-12-01T03:58:49.183600+00:00", "meta": {"OBJECT_NAME": "IRIDIUM 33 DEB", "OBJECT_ID": "1997-051Q", "EPOCH": "2025-11-30T17:36:48.043296", "MEAN_MOTION": 14.5546389, "ECCENTRICITY": 0.0005316, "INCLINATION": 86.3799, "RA_OF_ASC_NODE": 40.4242, "ARG_OF_PERICENTER": 305.1193, "MEAN_ANOMALY": 54.9516, "EPHEMERIS_TYPE": 0, "CLASSIFICATION_TYPE": "U", "NORAD_CAT_ID": 33777, "ELEMENT_SET_NO": 999, "REV_AT_EPOCH": 88359, "BSTAR": 0.00094879, "MEAN_MOTION_DOT": 4.146e-05, "MEAN_MOTION_DDOT": 0, "GROUP": "iridium-33-debris"}, "tle": {"line1": "1 33777U 97051Q   25334.73388939  .00004146  00000+0  94879-3 0  9990", "line2": "2 33777  86.3799  40.4242 0005316 305.1193  54.9516 14.55463890883592"}}, "geometry": {"type": "Point", "coordinates": [-156.350653117927, 77.49605527848821]}}, {"type": "Feature", "properties": {"norad_id": 33850, "name": "IRIDIUM 33 DEB", "group": "iridium-33-debris", "lat": -82.7861075558252, "lon": -114.4922769924961, "alt_km": 755.8342405827807, "timestamp": "2025-12-01T03:58:49.183610+00:00", "meta": {"OBJECT_NAME": "IRIDIUM 33 DEB", "OBJECT_ID": "1997-051T", "EPOCH": "2025-11-30T15:38:11.269248", "MEAN_MOTION": 14.42101058, "ECCENTRICITY": 0.0010927, "INCLINATION": 86.3427, "RA_OF_ASC_NODE": 35.3766, "ARG_OF_PERICENTER": 199.4707, "MEAN_ANOMALY": 275.712, "EPHEMERIS_TYPE": 0, "CLASSIFICATION_TYPE": "U", "NORAD_CAT_ID": 33850, "ELEMENT_SET_NO": 999, "REV_AT_EPOCH": 87978, "BSTAR": 0.00047311, "MEAN_MOTION_DOT": 1.575e-05, "MEAN_MOTION_DDOT": 0, "GROUP": "iridium-33-debris"}, "tle": {"line1": "1 33850U 97051T   25334.65151932  .00001575  00000+0  47311-3 0  9996", "line2": "2 33850  86.3427  35.3766 0010927 199.4707 275.7120 14.42101058879786"}}, "geometry": {"type": "Point", "coordinates": [-114.4922769924961, -82.7861075558252]}}, {"type": "Feature", "properties": {"norad_id": 33853, "name": "IRIDIUM 33 DEB", "group": "iridium-33-debris", "lat": -78.18635702685259, "lon": -24.65477983722463, "alt_km": 756.34799688975, "timestamp": "2025-12-01T03:58:49.183622+00:00", "meta": {"OBJECT_NAME": "IRIDIUM 33 DEB", "OBJECT_ID": "1997-051W", "EPOCH": "2025-11-30T13:28:35.398848", "MEAN_MOTION": 13.98932259, "ECCENTRICITY": 0.0206907, "INCLINATION": 86.0004, "RA_OF_ASC_NODE": 355.152, "ARG_OF_PERICENTER": 273.4524, "MEAN_ANOMALY": 205.6771, "EPHEMERIS_TYPE": 0, "CLASSIFICATION_TYPE": "U", "NORAD_CAT_ID": 33853, "ELEMENT_SET_NO": 999, "REV_AT_EPOCH": 85175, "BSTAR": 0.0021743, "MEAN_MOTION_DOT": 3.784e-05, "MEAN_MOTION_DDOT": 0, "GROUP": "iridium-33-debris"}, "tle": {"line1": "1 33853U 97051W   25334.56152082  .00003784  00000+0  21743-2 0  9990", "line2": "2 33853  86.0004 355.1520 0206907 273.4524 205.6771 13.98932259851759"}}, "geometry": {"type": "Point", "coordinates": [-24.65477983722463, -78.18635702685259]}}, {"type": "Feature", "properties": {"norad_id": 33860, "name": "IRIDIUM 33 DEB", "group": "iridium-33-debris", "lat": -52.3283730305956, "lon": -142.9444741511232, "alt_km": 683.3345588359589, "timestamp": "2025-12-01T03:58:49.183632+00:00", "meta": {"OBJECT_NAME": "IRIDIUM 33 DEB", "OBJECT_ID": "1997-051AD", "EPOCH": "2025-11-30T10:36:21.133728", "MEAN_MOTION": 14.67107118, "ECCENTRICITY": 0.00089007, "INCLINATION": 86.3854, "RA_OF_ASC_NODE": 32.6794, "ARG_OF_PERICENTER": 37.4386, "MEAN_ANOMALY": 333.9355, "EPHEMERIS_TYPE": 0, "CLASSIFICATION_TYPE": "U", "NORAD_CAT_ID": 33860, "ELEMENT_SET_NO": 999, "REV_AT_EPOCH": 88542, "BSTAR": 0.0013959243, "MEAN_MOTION_DOT": 7.867e-05, "MEAN_MOTION_DDOT": 0, "GROUP": "iridium-33-debris"}, "tle": {"line1": "1 33860U 97051AD  25334.44191127  .00007867  00000+0  13959-2 0  9994", "line2": "2 33860  86.3854  32.6794 0008900  37.4386 333.9355 14.67107118885429"}}, "geometry": {"type": "Point", "coordinates": [-142.9444741511232, -52.3283730305956]}}, {"type": "Feature", "properties": {"norad_id": 33862, "name": "IRIDIUM 33 DEB", "group": "iridium-33-debris", "lat": -2.003268932917251, "lon": -137.24245453981254, "alt_km": 656.4884364048394, "timestamp": "2025-12-01T03:58:49.183642+00:00", "meta": {"OBJECT_NAME": "IRIDIUM 33 DEB", "OBJECT_ID": "1997-051AF", "EPOCH": "2025-11-30T17:55:24.761568", "MEAN_MOTION": 14.69158473, "ECCENTRICITY": 0.0054119, "INCLINATION": 86.4103, "RA_OF_ASC_NODE": 42.8163, "ARG_OF_PERICENTER": 109.1834, "MEAN_ANOMALY": 17.2956, "EPHEMERIS_TYPE": 0, "CLASSIFICATION_TYPE": "U", "NORAD_CAT_ID": 33862, "ELEMENT_SET_NO": 999, "REV_AT_EPOCH": 88647, "BSTAR": 0.001483, "MEAN_MOTION_DOT": 8.948e-05, "MEAN_MOTION_DDOT": 0, "GROUP": "iridium-33-debris"}, "tle": {"line1": "1 33862U 97051AF  25334.74681437  .00008948  00000+0  14830-2 0  9997", "line2": "2 33862  86.4103  42.8163 0054119 109.1834  17.2956 14.69158473886477"}}, "geometry": {"type": "Point", "coordinates": [-137.24245453981254, -2.003268932917251]}}, {"type": "Feature", "properties": {"norad_id": 33866, "name": "IRIDIUM 33 DEB", "group": "iridium-33-debris", "lat": -77.65850545243164, "lon": 80.7272824891171, "alt_km": 805.0273487738732, "timestamp": "2025-12-01T03:58:49.183653+00:00", "meta": {"OBJECT_NAME": "IRIDIUM 33 DEB", "OBJECT_ID": "1997-051AK", "EPOCH": "2025-11-30T18:58:32.444256", "MEAN_MOTION": 14.25205128, "ECCENTRICITY": 0.0113431, "INCLINATION": 86.2996, "RA_OF_ASC_NODE": 98.0905, "ARG_OF_PERICENTER": 199.5552, "MEAN_ANOMALY": 317.1464, "EPHEMERIS_TYPE": 0, "CLASSIFICATION_TYPE": "U", "NORAD_CAT_ID": 33866, "ELEMENT_SET_NO": 999, "REV_AT_EPOCH": 86640, "BSTAR": 0.00063277, "MEAN_MOTION_DOT": 1.608e-05, "MEAN_MOTION_DDOT": 0, "GROUP": "iridium-33-debris"}, "tle": {"line1": "1 33866U 97051AK  25334.79065329  .00001608  00000+0  63277-3 0  9998", "line2": "2 33866  86.2996  98.0905 0113431 199.5552 317.1464 14.25205128866408"}}, "geometry": {"type": "Point", "coordinates": [80.7272824891171, -77.65850545243164]}}]}